      2.10          N: GNSS NAV DATA                        RINEX VERSION / TYPE
fic2rin                                 07/15/2020 00:17:48 PGM / RUN BY / DATE
                                                            END OF HEADER
 9 20  7 14  8  0  0.0-2.533136866987e-04-6.480149750132e-12 0.000000000000e+00
    1.010000000000e+02-2.725000000000e+01 4.865916970687e-09-3.666968246575e-01
   -1.676380634308e-06 1.552360015921e-03 7.865950465202e-06 5.153693008423e+03
    2.016000000000e+05-3.352761268616e-08-2.014195349287e+00-7.450580596924e-09
    9.525155786343e-01 2.259375000000e+02 1.790786897371e+00-8.176412008951e-09
   -7.750322832055e-11 1.000000000000e+00 2.114000000000e+03 0.000000000000e+00
    2.400000000000e+00 0.000000000000e+00 1.396983861923e-09 1.010000000000e+02
    1.944000000000e+05 4.000000000000e+00
10 20  7 14  8  0  0.0-3.991439007223e-04-1.068656274583e-11 0.000000000000e+00
    6.700000000000e+01-1.406250000000e+01 4.512687971568e-09 1.336103502668e+00
   -7.525086402893e-07 5.697417771444e-03 6.485730409622e-06 5.153663990021e+03
    2.016000000000e+05-8.009374141693e-08-3.047909291827e+00 3.539025783539e-08
    9.664081304348e-01 2.568437500000e+02-2.641805937958e+00-8.077836474313e-09
    1.996511734156e-10 1.000000000000e+00 2.114000000000e+03 0.000000000000e+00
    2.400000000000e+00 0.000000000000e+00 2.328306436539e-09 6.700000000000e+01
    1.944000000000e+05 4.000000000000e+00
28 20  7 14  8  0  0.0 6.997231394053e-04-3.637978807092e-12 0.000000000000e+00
    3.200000000000e+01 4.090625000000e+01 4.471257674401e-09 1.486939633004e-02
    2.233311533928e-06 1.837457786314e-02 5.250796675682e-06 5.153666149139e+03
    2.016000000000e+05-1.844018697739e-07 1.890057710890e-01-6.519258022308e-08
    9.772158971017e-01 2.908437500000e+02-1.403509071158e+00-8.479638925283e-09
   -5.393081786361e-11 1.000000000000e+00 2.114000000000e+03 0.000000000000e+00
    3.400000000000e+00 0.000000000000e+00-1.117587089539e-08 3.200000000000e+01
    1.944000000000e+05 4.000000000000e+00
15 20  7 14  8  0  0.0-2.176514826715e-04 2.614797267597e-12 0.000000000000e+00
    1.030000000000e+02-2.243750000000e+01 5.376295372854e-09-1.580042396228e+00
   -1.179054379463e-06 1.243150501978e-02 6.990507245064e-06 5.153710710526e+03
    2.016000000000e+05 2.533197402954e-07-2.104968185791e+00-2.421438694000e-08
    9.281213362762e-01 2.185937500000e+02 8.921633321496e-01-8.302131531388e-09
   -8.928943354902e-12 1.000000000000e+00 2.114000000000e+03 0.000000000000e+00
    3.400000000000e+00 0.000000000000e+00-1.071020960808e-08 1.030000000000e+02
    1.944000000000e+05 4.000000000000e+00
31 20  7 14  8  0  0.0-5.547981709242e-05-2.501110429876e-12 0.000000000000e+00
    7.700000000000e+01 5.787500000000e+01 4.679123475703e-09 2.335167598521e+00
    3.086403012276e-06 9.534942568280e-03 9.998679161072e-06 5.153616142273e+03
    2.016000000000e+05-2.123415470123e-07-9.242766281058e-01 1.359730958939e-07
    9.572138161176e-01 1.854375000000e+02 1.386070290363e-01-7.988189883030e-09
    2.464388365953e-11 1.000000000000e+00 2.114000000000e+03 0.000000000000e+00
    2.400000000000e+00 0.000000000000e+00-1.303851604462e-08 7.700000000000e+01
    1.944000000000e+05 4.000000000000e+00
27 20  7 14  8  0  0.0-3.454182296991e-04-9.549694368616e-12 0.000000000000e+00
    7.400000000000e+01-4.178125000000e+01 4.181959909702e-09-7.544398983186e-01
   -2.237036824226e-06 8.304725866765e-03 5.707144737244e-06 5.153669281006e+03
    2.016000000000e+05 1.806765794754e-07 1.142193183148e+00 1.173466444016e-07
    9.777808643606e-01 2.784375000000e+02 5.786147704277e-01-8.112837932264e-09
   -3.553719455251e-10 1.000000000000e+00 2.114000000000e+03 0.000000000000e+00
    2.400000000000e+00 0.000000000000e+00 1.862645149231e-09 7.400000000000e+01
    1.944000000000e+05 4.000000000000e+00
30 20  7 14  8  0  0.0-2.616783604026e-04-7.730704965070e-12 0.000000000000e+00
    8.700000000000e+01 4.731250000000e+01 5.072354141053e-09 2.614743570016e+00
    2.553686499596e-06 4.763281438500e-03 8.970499038696e-06 5.153626039505e+03
    2.016000000000e+05-1.136213541031e-07-9.180687893644e-01-5.215406417847e-08
    9.381034904958e-01 1.973125000000e+02-2.828070114255e+00-8.176769166685e-09
    2.750114553310e-11 1.000000000000e+00 2.114000000000e+03 0.000000000000e+00
    2.400000000000e+00 0.000000000000e+00 3.725290298462e-09 8.700000000000e+01
    1.944000000000e+05 4.000000000000e+00
24 20  7 14  8  0  0.0-1.564063131809e-05-5.684341886081e-13 0.000000000000e+00
    6.100000000000e+01 5.212500000000e+01 5.056996358482e-09-2.626699314833e+00
    2.473592758179e-06 9.769748430699e-03 9.499490261078e-06 5.153649599075e+03
    2.016000000000e+05 4.842877388000e-08-1.012977641990e+00-1.844018697739e-07
    9.360350208843e-01 1.829687500000e+02 6.681864005085e-01-8.111766459061e-09
    5.178787145843e-11 1.000000000000e+00 2.114000000000e+03 0.000000000000e+00
    2.400000000000e+00 0.000000000000e+00 2.793967723846e-09 6.100000000000e+01
    1.944000000000e+05 4.000000000000e+00
22 20  7 14  8  0  0.0-7.721269503236e-04 2.614797267597e-12 0.000000000000e+00
    3.100000000000e+01-2.875000000000e+00 5.200930925363e-09-1.668044844786e+00
    1.676380634308e-08 6.944651133381e-03 6.688758730888e-06 5.153785932541e+03
    2.016000000000e+05-1.080334186554e-07-3.133011603309e+00 1.210719347000e-07
    9.315562737780e-01 2.364062500000e+02-1.118729383021e+00-8.447851886940e-09
    3.618007847406e-10 1.000000000000e+00 2.114000000000e+03 0.000000000000e+00
    2.400000000000e+00 0.000000000000e+00-1.816079020500e-08 3.100000000000e+01
    1.944000000000e+05 4.000000000000e+00
19 20  7 14  8  0  0.0-1.322468742728e-04 5.115907697473e-12 0.000000000000e+00
    9.600000000000e+01-4.209375000000e+01 4.000523780730e-09 1.801114878110e+00
   -2.549961209297e-06 9.441680391319e-03 5.705282092094e-06 5.153695257187e+03
    2.016000000000e+05 1.266598701477e-07 1.246484553039e+00-1.303851604462e-07
    9.818881765666e-01 2.787500000000e+02 1.667388911818e+00-7.856041521377e-09
   -3.253706958526e-10 1.000000000000e+00 2.114000000000e+03 0.000000000000e+00
    3.400000000000e+00 0.000000000000e+00-1.536682248116e-08 9.600000000000e+01
    1.944000000000e+05 4.000000000000e+00
11 20  7 14  8  0  0.0-2.216072753072e-04 1.068656274583e-11 0.000000000000e+00
    7.100000000000e+01-4.962500000000e+01 5.249147219480e-09 2.881055435912e+00
   -2.339482307434e-06 1.605765882414e-02 7.221475243568e-06 5.153722183228e+03
    2.016000000000e+05 1.583248376846e-07 1.720557008997e+00 1.359730958939e-07
    9.129066459290e-01 2.136250000000e+02 2.007128572824e+00-8.218556621586e-09
   -1.592923494515e-10 1.000000000000e+00 2.114000000000e+03 0.000000000000e+00
    2.400000000000e+00 0.000000000000e+00-1.257285475731e-08 7.100000000000e+01
    1.944000000000e+05 4.000000000000e+00
21 20  7 14  8  0  0.0 2.348376438022e-05 4.547473508865e-12 0.000000000000e+00
    6.400000000000e+01-3.834375000000e+01 4.592691304027e-09 8.864917362705e-01
   -2.393499016762e-06 2.379901136737e-02 8.968636393547e-06 5.155106473923e+03
    2.016000000000e+05-1.788139343262e-07 2.123035955529e+00-4.097819328308e-07
    9.536602915505e-01 2.100625000000e+02-1.312790702019e+00-8.419636425938e-09
    6.893144269984e-11 1.000000000000e+00 2.114000000000e+03 0.000000000000e+00
    2.400000000000e+00 0.000000000000e+00-1.024454832077e-08 6.400000000000e+01
    1.944000000000e+05 4.000000000000e+00
12 20  7 14  8  0  0.0 9.394576773047e-05-4.888534022029e-12 0.000000000000e+00
    5.900000000000e+01 3.962500000000e+01 4.326251634317e-09 1.961340603309e+00
    1.771375536919e-06 7.974752807058e-03 4.857778549194e-06 5.153660173416e+03
    2.016000000000e+05-6.891787052155e-08 1.664552531637e-01-2.179294824600e-07
    9.779780730323e-01 2.930312500000e+02 1.167885980350e+00-8.003547665600e-09
   -6.500270762369e-11 1.000000000000e+00 2.114000000000e+03 0.000000000000e+00
    2.400000000000e+00 0.000000000000e+00-1.210719347000e-08 5.900000000000e+01
    1.944000000000e+05 4.000000000000e+00
25 20  7 14  8  0  0.0 2.314709126949e-05 4.206412995700e-12 0.000000000000e+00
    6.100000000000e+01 4.846875000000e+01 4.686623788121e-09 1.753645723138e+00
    2.343207597733e-06 9.090592269786e-03 5.012378096581e-06 5.153765516281e+03
    2.016000000000e+05-2.514570951462e-07 9.695562569955e-02-8.381903171539e-08
    9.653058114217e-01 2.856875000000e+02 9.411523258806e-01-8.264987127032e-09
   -2.142946405177e-11 1.000000000000e+00 2.114000000000e+03 0.000000000000e+00
    2.400000000000e+00 0.000000000000e+00 5.587935447693e-09 6.100000000000e+01
    1.944000000000e+05 4.000000000000e+00
20 20  7 14  8  0  0.0 5.273041315377e-04-1.136868377216e-13 0.000000000000e+00
    7.400000000000e+01-7.187500000000e+00 5.159857785931e-09 2.874725171408e+00
   -2.924352884293e-07 5.309322383255e-03 6.116926670074e-06 5.153654314041e+03
    2.016000000000e+05-3.911554813385e-08 3.102895785939e+00 5.774199962616e-08
    9.348660410831e-01 2.437812500000e+02 2.678434609564e+00-8.340704566681e-09
    3.050127050035e-10 1.000000000000e+00 2.114000000000e+03 0.000000000000e+00
    2.400000000000e+00 0.000000000000e+00-8.847564458847e-09 7.400000000000e+01
    1.944000000000e+05 4.000000000000e+00
32 20  7 14  8  0  0.0 3.167167305946e-04 6.252776074689e-12 0.000000000000e+00
    1.030000000000e+02-2.478125000000e+01 4.799842789861e-09-5.527350400902e-02
   -1.255422830582e-06 4.083771025762e-03 8.326023817062e-06 5.153732271194e+03
    2.016000000000e+05 4.284083843231e-08-2.005584742209e+00 5.401670932770e-08
    9.566133058011e-01 2.195625000000e+02-2.432087615331e+00-8.132838765379e-09
   -1.225051028293e-10 1.000000000000e+00 2.114000000000e+03 0.000000000000e+00
    2.400000000000e+00 0.000000000000e+00 4.656612873077e-10 1.030000000000e+02
    1.944000000000e+05 4.000000000000e+00
